STARLINK-36444          
1 67521U 26012AE  26039.25002315 -.01896445  00000+0 -24240-1 0  9991
2 67521  42.9993 122.1143 0001440 268.9695  54.3240 15.61620238  4272
HULIANWANG DIGUI-146    
1 67522U 26013A   26038.36883109  .00000008  00000+0  13501-3 0  9991
2 67522  50.0089 108.8737 0000754 312.4491  47.6341 13.84482708  2664
HULIANWANG DIGUI-147    
1 67523U 26013B   26038.36729122 -.00000009  00000+0  12016-3 0  9998
2 67523  50.0063 108.8509 0000936 339.5535  20.5324 13.84520340  2661
HULIANWANG DIGUI-148    
1 67524U 26013C   26037.49848552  .00000045  00000+0  16372-3 0  9999
2 67524  50.0060 112.2692 0001035  28.5692 331.5262 13.86045850  2544
HULIANWANG DIGUI-149    
1 67525U 26013D   26038.36173686  .00000019  00000+0  14342-3 0  9992
2 67525  50.0093 108.8357 0000686  34.5919 325.5022 13.85279637  2661
HULIANWANG DIGUI-150    
1 67526U 26013E   26037.70708411  .00000031  00000+0  15093-3 0  9998
2 67526  50.0014 111.3671 0000358 322.4069  37.6803 13.86273245  2594
HULIANWANG DIGUI-151    
1 67527U 26013F   26038.93399744  .00000037  00000+0  15345-3 0  9996
2 67527  50.0094 106.5369 0000270  98.1735 261.9193 13.87467532  2749
HULIANWANG DIGUI-152    
1 67528U 26013G   26037.85000518  .00000045  00000+0  16244-3 0  9993
2 67528  49.9909 110.8762 0011338   5.9340 354.1690 13.86415145  2594
HULIANWANG DIGUI-153    
1 67529U 26013H   26038.49404900 -.00000103  00000+0  35564-4 0  9991
2 67529  50.0020 108.1828 0000525 103.0811 257.0145 13.86090346  2671
HULIANWANG DIGUI-154    
1 67530U 26013J   26038.34760553  .00000115  00000+0  22216-3 0  9997
2 67530  50.0072 108.7538 0000474 165.1685 194.9226 13.86545192  2656
CZ-12 R/B               
1 67531U 26013K   26039.15156725  .00000098  00000+0  12818-3 0  9995
2 67531  49.9920 102.9928 0068779 196.1621 163.7093 14.14457951  2801
STARLINK-36587          
1 67532U 26014A   26039.24083823  .00248455  00000+0  12571-2 0  9991
2 67532  97.2828 282.6618 0002061  70.0901 290.0590 15.80887867  3938
STARLINK-36417          
1 67533U 26014B   26039.25002315 -.00139556  00000+0 -94829-3 0  9990
2 67533  97.2837 282.6485 0001651  84.5606 277.0267 15.75233168  3958
STARLINK-36576          
1 67534U 26014C   26039.23944651  .00259460  00000+0  13100-2 0  9994
2 67534  97.2831 282.6634 0001020  80.9954 279.1430 15.80906594  3934
STARLINK-36574          
1 67535U 26014D   26039.23816682  .00244541  00000+0  12381-2 0  9991
2 67535  97.2834 282.6650 0001734  84.9610 275.1856 15.80883771  3930
STARLINK-36572          
1 67536U 26014E   26039.11046827 -.00606826  00000+0 -35102-2 0  9991
2 67536  97.2839 282.5329 0001058  67.7141 292.4240 15.80075209  3911
STARLINK-36561          
1 67537U 26014F   26039.25002315 -.00165877  00000+0 -11290-2 0  9999
2 67537  97.2825 282.6652 0001707 110.8212 294.7490 15.75269676  3950
STARLINK-36397          
1 67538U 26014G   26039.25002315  .00007376  00000+0  50285-4 0  9996
2 67538  97.2840 282.6567 0001522  87.8635 295.7294 15.75186332  3950
STARLINK-36573          
1 67539U 26014H   26039.10746075  .00271174  00000+0  13675-2 0  9998
2 67539  97.2847 282.5350 0002196  62.9851 297.1641 15.80901244  3910
STARLINK-36585          
1 67540U 26014J   26039.25002315 -.00000892  00000+0 -51139-5 0  9997
2 67540  97.2811 282.6739 0001572 107.7866 321.8155 15.75184974  3952
STARLINK-36579          
1 67541U 26014K   26039.23188962 -.00322815  00000+0 -17738-2 0  9995
2 67541  97.2844 282.6726 0001141  50.2675 309.8693 15.80490565  3930
STARLINK-35934          
1 67542U 26014L   26039.16712632  .00193130  00000+0  98442-3 0  9991
2 67542  97.2850 282.6070 0001648  95.4633 264.6824 15.80869971  3910
STARLINK-36581          
1 67543U 26014M   26039.16592868  .00062006  00000+0  32236-3 0  9995
2 67543  97.2818 282.6079 0001570 136.3985 223.7407 15.80801647  3923
STARLINK-36565          
1 67544U 26014N   26039.16488171  .00150444  00000+0  77259-3 0  9995
2 67544  97.2845 282.6094 0001302 103.3778 256.7635 15.80818995  3921
STARLINK-36583          
1 67545U 26014P   26039.25002315  .00014688  00000+0  99227-4 0  9997
2 67545  97.2849 282.6857 0001066  78.5487  13.0466 15.75177691  3954
STARLINK-36580          
1 67546U 26014Q   26039.09913026  .00342766  00000+0  17113-2 0  9993
2 67546  97.2779 282.5415 0001335  33.0263 327.1088 15.80937635  3916
STARLINK-36584          
1 67547U 26014R   26039.22477648  .00249236  00000+0  12611-2 0  9990
2 67547  97.2762 282.6764 0001672  90.9861 269.1599 15.80885190  3939
STARLINK-36586          
1 67548U 26014S   26039.22340867  .00205771  00000+0  10471-2 0  9991
2 67548  97.2850 282.6832 0001591  73.9626 286.1818 15.80873587  3934
STARLINK-36564          
1 67549U 26014T   26039.25002315 -.00475896  00000+0 -33307-2 0  9990
2 67549  97.2856 282.7092 0001597  90.6186  56.8665 15.75462468  3896
STARLINK-36563          
1 67550U 26014U   26039.22116699 -.00687458  00000+0 -40424-2 0  9997
2 67550  97.2852 282.6821 0002111  77.3909 282.7595 15.79909390  3932
STARLINK-36566          
1 67551U 26014V   26039.21995286  .00049208  00000+0  25659-3 0  9991
2 67551  97.2841 282.6856 0002329  68.9604 291.1913 15.80779835  3926
STARLINK-36567          
1 67552U 26014W   26039.25002315  .00002931  00000+0  20510-4 0  9992
2 67552  97.2846 282.7001 0001612  98.0119  37.5695 15.75194725  3959
STARLINK-36569          
1 67553U 26014X   26039.21738462  .00185726  00000+0  94769-3 0  9998
2 67553  97.2749 282.6851 0001082  81.5966 278.5425 15.80866264  3927
STARLINK-36395          
1 67554U 26014Y   26039.25002315 -.00027993  00000+0 -18743-3 0  9995
2 67554  97.2841 282.7139 0001473 111.7772  55.8236 15.75188994  3956
STARLINK-36559          
1 67555U 26014Z   26039.25002315 -.00059969  00000+0 -40374-3 0  9999
2 67555  97.2843 282.7103 0001487 101.6832  57.9124 15.75204980  3953
MR-1                    
1 67556U 26015A   26039.19826336  .00000032  00000+0  30509-4 0  9996
2 67556  88.9980 281.6599 0005117  91.3493 268.8245 13.52686060  2279
MR-2                    
1 67557U 26015B   26039.19856739  .00000024  00000+0  18477-4 0  9998
2 67557  88.9979 281.6600 0005175  90.4532 269.7213 13.52660939  2271
ELECTRON R/B            
1 67558U 26015C   26039.27102695  .01837830 -84935-6  14336-2 0  9992
2 67558  88.9987 281.1772 0495048 208.5135 148.8208 15.18805516  2524
ELECTRON KICK STAGE R/B 
1 67559U 26015D   26039.20327282  .00067268  26971-6  11407-2 0  9997
2 67559  89.0512 281.3851 0531764 276.8540  77.2481 14.67393414  2468
STARLINK-36426          
1 67560U 26014AA  26039.21627927  .00294332  00000+0  14807-2 0  9997
2 67560  97.2844 282.6871 0001221 130.2219 229.9157 15.80895561  3925
STARLINK-36621          
1 67561U 26016A   26039.25002315 -.00029791  00000+0 -15509-3 0  9990
2 67561  97.2836  98.1844 0001076 108.7287 205.7721 15.80848472  3311
STARLINK-36398          
1 67562U 26016B   26039.25002315 -.01878565  00000+0 -13015-1 0  9991
2 67562  97.2792  98.1843 0001448  77.2808 239.3495 15.77520709  3298
STARLINK-36403          
1 67563U 26016C   26039.25002315  .00008412  00000+0  44612-4 0  9995
2 67563  97.2835  98.1904 0001085  96.1069 231.0675 15.80816039  3412
STARLINK-36593          
1 67564U 26016D   26039.25002315 -.00088334  00000+0 -46408-3 0  9993
2 67564  97.2834  98.1921 0001397  82.4687 251.6509 15.80863275  3251
STARLINK-35725          
1 67565U 26016E   26039.25002315 -.00118175  00000+0 -62300-3 0  9990
2 67565  97.2835  98.1936 0001139  77.5669 261.7792 15.80871997  3300
STARLINK-36394          
1 67566U 26016F   26039.25002315  .00094732  00000+0  49290-3 0  9994
2 67566  97.2779  98.2022 0001395  72.5512 289.3284 15.80684186  3417
STARLINK-36352          
1 67567U 26016G   26039.25002315 -.00067628  00000+0 -35470-3 0  9996
2 67567  97.2779  98.1980 0001210  67.9705 287.0030 15.80838580  3310
STARLINK-36435          
1 67568U 26016H   26039.25002315  .00044176  00000+0  23030-3 0  9997
2 67568  97.2779  98.2048 0001380  54.9918 312.7783 15.80806887  3313
STARLINK-36575          
1 67569U 26016J   26039.25002315  .00001342  00000+0  77425-5 0  9995
2 67569  97.2832  98.2087 0000812  92.2326 282.4133 15.80829045  3317
STARLINK-36562          
1 67570U 26016K   26039.25002315  .00017268  00000+0  90693-4 0  9992
2 67570  97.2835  98.2108 0001078  93.1174 286.7180 15.80820672  3318
STARLINK-36578          
1 67571U 26016L   26039.25002315 -.00044692  00000+0 -23360-3 0  9992
2 67571  97.2836  98.2127 0001407 114.2733 271.5003 15.80832492  3299
STARLINK-36350          
1 67572U 26016M   26039.25002315 -.00002362  00000+0 -11589-4 0  9992
2 67572  97.2778  98.2151 0001478  74.4352 318.7451 15.80826189  3202
STARLINK-36588          
1 67573U 26016N   26039.25002315 -.00014308  00000+0 -74033-4 0  9999
2 67573  97.2825  98.2184 0001442  97.0783 304.4724 15.80828781  3364
STARLINK-36594          
1 67574U 26016P   26039.25002315 -.00028466  00000+0 -14827-3 0  9994
2 67574  97.2829  98.2203 0001121 106.9000 299.7274 15.80828712  3367
STARLINK-36400          
1 67575U 26016Q   26039.25002315  .00027470  00000+0  14369-3 0  9998
2 67575  97.2770  98.2228 0001547  91.7001 320.5808 15.80816945  3253
STARLINK-36591          
1 67576U 26016R   26039.25002315 -.00035062  00000+0 -18300-3 0  9996
2 67576  97.2824  98.2242 0001383  70.5009 347.6859 15.80820382  3314
STARLINK-36590          
1 67577U 26016S   26039.25002315 -.00077189  00000+0 -40516-3 0  9997
2 67577  97.2758  98.2256 0001482  93.9899 329.6012 15.80850255  3315
STARLINK-36613          
1 67578U 26016T   26039.25002315  .00031160  00000+0  16294-3 0  9991
2 67578  97.2802  98.2293 0001437  93.8221 336.3128 15.80802043  3310
STARLINK-36571          
1 67579U 26016U   26039.25002315  .00055350  00000+0  28802-3 0  9997
2 67579  97.2802  98.2337 0001723  96.0623 342.5163 15.80803997  3316
